[{"OBJECT_NAME":"ONEWEB-0656","OBJECT_ID":"2023-029X","EPOCH":"2026-03-09T15:49:54.776064","MEAN_MOTION":13.20770703,"ECCENTRICITY":0.0001393,"INCLINATION":87.9171,"RA_OF_ASC_NODE":294.3009,"ARG_OF_PERICENTER":70.4706,"MEAN_ANOMALY":289.6578,"EPHEMERIS_TYPE":0,"CLASSIFICATION_TYPE":"U","NORAD_CAT_ID":55817,"ELEMENT_SET_NO":999,"REV_AT_EPOCH":14801,"BSTAR":-0.00029553547,"MEAN_MOTION_DOT":-1.07e-6,"MEAN_MOTION_DDOT":0},{"OBJECT_NAME":"COSMOS 839 DEB","OBJECT_ID":"1976-067P","EPOCH":"2026-03-09T08:51:58.156704","MEAN_MOTION":12.09764926,"ECCENTRICITY":0.06412431,"INCLINATION":65.9685,"RA_OF_ASC_NODE":34.0683,"ARG_OF_PERICENTER":62.7643,"MEAN_ANOMALY":13.453,"EPHEMERIS_TYPE":0,"CLASSIFICATION_TYPE":"U","NORAD_CAT_ID":10438,"ELEMENT_SET_NO":999,"REV_AT_EPOCH":19156,"BSTAR":0.0048489675,"MEAN_MOTION_DOT":7.75e-6,"MEAN_MOTION_DDOT":0}]
